GLOBALSTAR M068         
1 32266U 07048D   26013.28020818 -.00000116  00000+0 -66066-4 0  9996
2 32266  51.9906  21.8143 0000887 228.5538 145.0533 12.62837630844102
GLOBALSTAR M079         
1 37188U 10054A   26013.27644060 -.00000088  00000+0  89578-4 0  9995
2 37188  52.0012 220.2425 0001185  69.9883 101.9760 12.62269913702985
GLOBALSTAR M074         
1 37189U 10054B   26013.30277970 -.00000076  00000+0  15613-3 0  9997
2 37189  51.9990 219.4526 0001188  86.5906  84.5118 12.62265421703596
GLOBALSTAR M076         
1 37190U 10054C   26013.32946204 -.00000065  00000+0  21634-3 0  9992
2 37190  52.0003 219.5619 0001311  81.0481  90.6507 12.62269409703315
GLOBALSTAR M077         
1 37191U 10054D   26013.32207315 -.00000047  00000+0  56820-3 0  9991
2 37191  51.9940 212.6403 0001727  77.2837  94.7106 11.68177523703042
GLOBALSTAR M075         
1 37192U 10054E   26013.18433024 -.00000080  00000+0  13438-3 0  9999
2 37192  51.9941 262.1438 0000821  69.0311 104.1379 12.62263484702361
GLOBALSTAR M073         
1 37193U 10054F   26013.18429642 -.00000087  00000+0  91702-4 0  9999
2 37193  52.0038 176.1232 0001218  87.8287  83.2840 12.62268971704355
GLOBALSTAR M083         
1 37739U 11033A   26013.32544746 -.00000106  00000+0 -10721-4 0  9997
2 37739  51.9852 124.1337 0000896  98.4559 296.2386 12.62266488673394
GLOBALSTAR M088         
1 37740U 11033B   26013.29453418 -.00000095  00000+0  51191-4 0  9992
2 37740  52.0234  30.2798 0000257 123.9560 249.7632 12.62271547668930
GLOBALSTAR M091         
1 37741U 11033C   26013.22876406 -.00000093  00000+0  58156-4 0  9998
2 37741  52.0025 353.6764 0000275  37.7151 336.0509 12.62268569669712
GLOBALSTAR M085         
1 37742U 11033D   26013.16363066 -.00000087  00000+0  91553-4 0  9996
2 37742  52.0148 305.0322 0000665  35.8091 102.3981 12.62268025670217
GLOBALSTAR M081         
1 37743U 11033E   26013.19031015 -.00000094  00000+0  53878-4 0  9992
2 37743  51.9976 307.5613 0000766  51.1343  89.4977 12.62271709670367
GLOBALSTAR M089         
1 37744U 11033F   26013.07188906 -.00000093  00000+0  61328-4 0  9990
2 37744  51.9925 262.1124 0001029  84.0071  57.8795 12.62263427671198
GLOBALSTAR M084         
1 38040U 11080A   26012.58174922 -.00000104  00000+0 -55602-6 0  9994
2 38040  52.0001 131.0011 0001168 115.0169 257.8553 12.62267101649115
GLOBALSTAR M080         
1 38041U 11080B   26013.06322488 -.00000111  00000+0 -38819-4 0  9998
2 38041  52.0053 131.2000 0000439 117.2835  54.3153 12.62265423649297
GLOBALSTAR M082         
1 38042U 11080C   26013.12091464 -.00000102  00000+0  80966-5 0  9993
2 38042  52.0082  86.5095 0000305 129.4381 234.1834 12.62266587650017
GLOBALSTAR M092         
1 38043U 11080D   26013.21060999 -.00000082  00000+0  12277-3 0  9998
2 38043  52.0061 176.6236 0001029  96.7201  74.5468 12.62269360648472
GLOBALSTAR M090         
1 38044U 11080E   26013.23475972 -.00000103  00000+0  21190-5 0  9992
2 38044  52.0128  80.0695 0000530 106.9673 293.0324 12.62265771650145
GLOBALSTAR M086         
1 38045U 11080F   26013.17460514 -.00000105  00000+0 -75399-5 0  9995
2 38045  51.9906  80.4348 0001516  81.6461 296.4694 12.62282012650083
GLOBALSTAR M097         
1 39072U 13005A   26013.19910624 -.00000095  00000+0  51208-4 0  9998
2 39072  52.0070 355.1322 0000473  56.0216 304.0696 12.62268113597339
GLOBALSTAR M093         
1 39073U 13005B   26013.17294286 -.00000095  00000+0  49458-4 0  9990
2 39073  52.0129 348.5010 0000659  35.5467 324.5443 12.62271550597281
GLOBALSTAR M094         
1 39074U 13005C   26013.17291413 -.00000079  00000+0  14104-3 0  9991
2 39074  51.9951 262.7752 0001027  55.4413 304.6550 12.62265974598894
GLOBALSTAR M096         
1 39075U 13005D   26013.26507108 -.00000089  00000+0  83422-4 0  9994
2 39075  52.0093 311.1705 0000712  37.8217 322.2700 12.62269955597825
GLOBALSTAR M078         
1 39076U 13005E   26013.31817703 -.00000003  00000+0  56130-3 0  9997
2 39076  51.9887  35.2332 0000528 285.4767  74.6042 12.62273924596457
GLOBALSTAR M095         
1 39077U 13005F   26013.18618815 -.00000099  00000+0  24897-4 0  9997
2 39077  52.0095  33.0193 0000254   6.3208 353.7662 12.62267751596290
GLOBALSTAR M087         
1 52888U 22064A   26013.12015423 -.00000090  00000+0  74594-4 0  9997
2 52888  51.9971 174.5466 0000996  83.5099 276.5881 12.62262340171550
